ONEWEB-0528             
1 54643U 22166B   23299.88112720 -.00000024  00000+0 -89761-4 0  9995
2 54643  87.9218  75.9461 0002258  89.0882 271.0510 13.21827346 44150
ONEWEB-0539             
1 54644U 22166C   23299.84170496 -.00000062  00000+0 -18083-3 0  9996
2 54644  87.9219  75.9532 0001886  93.3174 266.8176 13.21826541 44144
ONEWEB-0540             
1 54645U 22166D   23299.83617878 -.00000043  00000+0 -13523-3 0  9999
2 54645  87.9219  75.9805 0001964  92.4330 267.7029 13.21825505 44134
ONEWEB-0542             
1 54646U 22166E   23299.85115203 -.00000044  00000+0 -13717-3 0  9993
2 54646  87.9218  75.9523 0002220 102.1730 257.9652 13.21825781 44140
ONEWEB-0545             
1 54647U 22166F   23300.12082172 -.00000967  00000+0 -23724-2 0  9997
2 54647  87.9218  75.9389 0002262  91.8194 268.3199 13.21830534 44611
ONEWEB-0580             
1 54648U 22166G   23299.94261619  .00001889  00000+0  45409-2 0  9996
2 54648  87.9204  75.9287 0002067 107.2621 252.8739 13.21838926 44626
ONEWEB-0582             
1 54649U 22166H   23299.83380499 -.00000030  00000+0 -10514-3 0  9992
2 54649  87.9219  75.9907 0001926  87.2812 272.8542 13.21825515 44123
ONEWEB-0583             
1 54650U 22166J   23300.14763026 -.00000223  00000+0 -57137-3 0  9998
2 54650  87.9218  75.9344 0001286  93.5330 266.5951 13.21827257 44650
